Place name,Address,ID,Latitude,Longitude
Gihon,"75 Gihon Spring Drive, Etobicoke, ON M9V 4X6, Canada",ChIJYbwjTt06K4gRuKL-IX6oTy0,43.754475,-79.594406
Gihon,"6550 Saint Augustine Road #303, Jacksonville, FL 32217, United States",ChIJRUzmdd7J5YgR0aKaqFXMhLI,30.254356,-81.627089
Gihon,"2000 Belmont Road, Parkersburg, WV 26101, United States",ChIJsX7lyvNMSIgRVXRTNgaDlb0,39.234044,-81.552035
Gihon,"Avenida Doctor Carlos Ochoa, Chihuahua, Chih., Mexico",ChIJZXXaICJC6oYRKuU8rcdADFk,28.754132,-106.148985
Gihon,"16761 East Iliff Avenue, Aurora, CO 80013, United States",ChIJQ2gs9NGJbIcR3hNRSQlaDxQ,39.673824,-104.792097
Gihon,"1406 Gihon Road, Parkersburg, WV 26101, United States",ChIJ0ZQ0bVtMSIgRLEHk-NcXrv8,39.236625,-81.568713
Gihon,"2601 Unity Place, Parkersburg, WV 26101, United States",ChIJLbAonOhMSIgRCj0HM28hSAQ,39.230998,-81.541457
Gihon,"110 Gihon Village, Parkersburg, WV 26101, United States",ChIJ0wbNJ2tMSIgRKBR5MjT6wAQ,39.231895,-81.54554
Gihon,"2320 Gihon Road, Parkersburg, WV 26101, United States",ChIJj5x84e9MSIgRtwJwYwsqTUo,39.232062,-81.54848
Gihon,"1716 Gihon Road, Parkersburg, WV 26101, United States",ChIJiauAKFhMSIgRNqfH1x2c20U,39.232484,-81.56172
Gihon,"260 Gihon Village, Parkersburg, WV 26101, United States",ChIJh_ZeLu9MSIgRxLn8je2Iu5s,39.232343,-81.542123
Gihon,"1510 Gihon Road, Parkersburg, WV 26101, United States",ChIJ63gyJFpMSIgRPgWHj6bQWPE,39.234359,-81.565513
Gihon,"1906 Gihon Road, Parkersburg, WV 26101, United States",ChIJH_Ar0vlMSIgRQetBu2NM6-w,39.230957,-81.55742
Gihon,"409 Montgomery Road #115, Altamonte Springs, FL 32714, United States",ChIJhfnfHWZx54gR7aZqZAbSA-8,28.667876,-81.401452
Gihon,"280 Gihon Village, Parkersburg, WV 26101, United States",ChIJh_ZeLu9MSIgRjLXRuUcDEtM,39.232811,-81.543847
Gihon,Canada,ChIJ1yBBf9w6K4gRFISLIFZE2wE,43.759103,-79.597144
Gihon,"26 Vast Lane, Berlin, VT 05602, United States",ChIJazXuBzEGtUwRDm9J1q4eK9E,44.209724,-72.56845
Gihon,"110 Gihon Village, Parkersburg, WV 26101, United States",ChIJcUsOsOhMSIgRNCZOxHPAsWY,39.231802,-81.545575
Gihon,"108 East 89th Street, New York, NY 10128, United States",ChIJu955R6NYwokRX3iaD_1NVcE,40.781585,-73.955087
Gihon,"14614 North Kierland Boulevard S150, Scottsdale, AZ 85254, United States",ChIJ-9M82sx1K4cRpMqLGdHOfqg,33.619257,-111.932306
